ONEWEB-0396             
1 50476U 21132H   25086.86186073  .00000062  00000+0  12447-3 0  9999
2 50476  87.9080  64.1789 0002009  89.6458 270.4904 13.18687088162816
ONEWEB-0397             
1 50477U 21132J   25086.87608546  .00000105  00000+0  23443-3 0  9991
2 50477  87.9080  64.1775 0002149  87.6130 272.5248 13.18687359162794
ONEWEB-0399             
1 50479U 21132L   25086.78515514 -.00000427  00000+0 -12418-2 0  9993
2 50479  87.8799 110.0684 0002272 100.1993 259.9391 13.11417344158372
ONEWEB-0400             
1 50480U 21132M   25086.47615130  .00000078  00000+0  16537-3 0  9993
2 50480  87.9078  64.2502 0001725  81.1783 278.9544 13.18688327164018
ONEWEB-0402             
1 50482U 21132P   25086.63580935  .00000087  00000+0  18859-3 0  9996
2 50482  87.9074  64.2097 0002665  84.9858 275.1578 13.18687767162788
